CCSDS_OMM_VERS = 2.0
CREATION_DATE  = 
ORIGINATOR     = 

OBJECT_NAME    = STARLINK-37108
OBJECT_ID      = 2026-053M
CENTER_NAME    = EARTH
REF_FRAME      = TEME
TIME_SYSTEM    = UTC
MEAN_ELEMENT_THEORY = SGP/SGP4

EPOCH          = 2026-03-27T04:00:03.000096
MEAN_MOTION    = 15.84180941
ECCENTRICITY   = .0001885
INCLINATION    = 97.2792
RA_OF_ASC_NODE = 321.2700
ARG_OF_PERICENTER = 111.4926
MEAN_ANOMALY   = 74.9420

EPHEMERIS_TYPE = 0
CLASSIFICATION_TYPE = U
NORAD_CAT_ID   = 68218
ELEMENT_SET_NO = 999
REV_AT_EPOCH   = 282
BSTAR          = -.10084E-1
MEAN_MOTION_DOT = -.1968397E-1
MEAN_MOTION_DDOT = 0

CCSDS_OMM_VERS = 2.0
CREATION_DATE  = 
ORIGINATOR     = 

OBJECT_NAME    = STARLINK-37106
OBJECT_ID      = 2026-053N
CENTER_NAME    = EARTH
REF_FRAME      = TEME
TIME_SYSTEM    = UTC
MEAN_ELEMENT_THEORY = SGP/SGP4

EPOCH          = 2026-03-27T04:00:03.000096
MEAN_MOTION    = 15.84355396
ECCENTRICITY   = .0001647
INCLINATION    = 97.2793
RA_OF_ASC_NODE = 321.2715
ARG_OF_PERICENTER = 100.9015
MEAN_ANOMALY   = 89.2794

EPHEMERIS_TYPE = 0
CLASSIFICATION_TYPE = U
NORAD_CAT_ID   = 68219
ELEMENT_SET_NO = 999
REV_AT_EPOCH   = 282
BSTAR          = -.9924E-2
MEAN_MOTION_DOT = -.1955101E-1
MEAN_MOTION_DDOT = 0

CCSDS_OMM_VERS = 2.0
CREATION_DATE  = 
ORIGINATOR     = 

OBJECT_NAME    = STARLINK-37030
OBJECT_ID      = 2026-053P
CENTER_NAME    = EARTH
REF_FRAME      = TEME
TIME_SYSTEM    = UTC
MEAN_ELEMENT_THEORY = SGP/SGP4

EPOCH          = 2026-03-27T04:00:03.000096
MEAN_MOTION    = 15.84657692
ECCENTRICITY   = .000188
INCLINATION    = 97.2784
RA_OF_ASC_NODE = 321.2746
ARG_OF_PERICENTER = 102.8851
MEAN_ANOMALY   = 94.9243

EPHEMERIS_TYPE = 0
CLASSIFICATION_TYPE = U
NORAD_CAT_ID   = 68220
ELEMENT_SET_NO = 999
REV_AT_EPOCH   = 282
BSTAR          = -.97904E-2
MEAN_MOTION_DOT = -.1957024E-1
MEAN_MOTION_DDOT = 0

CCSDS_OMM_VERS = 2.0
CREATION_DATE  = 
ORIGINATOR     = 

OBJECT_NAME    = STARLINK-37012
OBJECT_ID      = 2026-053Q
CENTER_NAME    = EARTH
REF_FRAME      = TEME
TIME_SYSTEM    = UTC
MEAN_ELEMENT_THEORY = SGP/SGP4

EPOCH          = 2026-03-27T04:00:03.000096
MEAN_MOTION    = 15.84520161
ECCENTRICITY   = .0001955
INCLINATION    = 97.2785
RA_OF_ASC_NODE = 321.2731
ARG_OF_PERICENTER = 99.8760
MEAN_ANOMALY   = 94.1037

EPHEMERIS_TYPE = 0
CLASSIFICATION_TYPE = U
NORAD_CAT_ID   = 68221
ELEMENT_SET_NO = 999
REV_AT_EPOCH   = 282
BSTAR          = -.99E-2
MEAN_MOTION_DOT = -.1964796E-1
MEAN_MOTION_DDOT = 0

CCSDS_OMM_VERS = 2.0
CREATION_DATE  = 
ORIGINATOR     = 

OBJECT_NAME    = STARLINK-37110
OBJECT_ID      = 2026-053R
CENTER_NAME    = EARTH
REF_FRAME      = TEME
TIME_SYSTEM    = UTC
MEAN_ELEMENT_THEORY = SGP/SGP4

EPOCH          = 2026-03-27T04:00:03.000096
MEAN_MOTION    = 15.84813803
ECCENTRICITY   = .0001809
INCLINATION    = 97.2783
RA_OF_ASC_NODE = 321.2762
ARG_OF_PERICENTER = 102.1102
MEAN_ANOMALY   = 99.4535

EPHEMERIS_TYPE = 0
CLASSIFICATION_TYPE = U
NORAD_CAT_ID   = 68222
ELEMENT_SET_NO = 999
REV_AT_EPOCH   = 282
BSTAR          = -.96969E-2
MEAN_MOTION_DOT = -.1953418E-1
MEAN_MOTION_DDOT = 0

CCSDS_OMM_VERS = 2.0
CREATION_DATE  = 
ORIGINATOR     = 

OBJECT_NAME    = STARLINK-37025
OBJECT_ID      = 2026-053S
CENTER_NAME    = EARTH
REF_FRAME      = TEME
TIME_SYSTEM    = UTC
MEAN_ELEMENT_THEORY = SGP/SGP4

EPOCH          = 2026-03-27T04:00:03.000096
MEAN_MOTION    = 15.84947278
ECCENTRICITY   = .0001726
INCLINATION    = 97.2777
RA_OF_ASC_NODE = 321.2770
ARG_OF_PERICENTER = 100.8499
MEAN_ANOMALY   = 104.5300

EPHEMERIS_TYPE = 0
CLASSIFICATION_TYPE = U
NORAD_CAT_ID   = 68223
ELEMENT_SET_NO = 999
REV_AT_EPOCH   = 282
BSTAR          = -.96121E-2
MEAN_MOTION_DOT = -.1949348E-1
MEAN_MOTION_DDOT = 0

CCSDS_OMM_VERS = 2.0
CREATION_DATE  = 
ORIGINATOR     = 

OBJECT_NAME    = STARLINK-36977
OBJECT_ID      = 2026-053T
CENTER_NAME    = EARTH
REF_FRAME      = TEME
TIME_SYSTEM    = UTC
MEAN_ELEMENT_THEORY = SGP/SGP4

EPOCH          = 2026-03-27T04:00:03.000096
MEAN_MOTION    = 15.85122727
ECCENTRICITY   = .0001825
INCLINATION    = 97.2772
RA_OF_ASC_NODE = 321.2783
ARG_OF_PERICENTER = 109.0712
MEAN_ANOMALY   = 99.9530

EPHEMERIS_TYPE = 0
CLASSIFICATION_TYPE = U
NORAD_CAT_ID   = 68224
ELEMENT_SET_NO = 999
REV_AT_EPOCH   = 271
BSTAR          = -.95232E-2
MEAN_MOTION_DOT = -.1948101E-1
MEAN_MOTION_DDOT = 0

CCSDS_OMM_VERS = 2.0
CREATION_DATE  = 
ORIGINATOR     = 

OBJECT_NAME    = STARLINK-36960
OBJECT_ID      = 2026-053U
CENTER_NAME    = EARTH
REF_FRAME      = TEME
TIME_SYSTEM    = UTC
MEAN_ELEMENT_THEORY = SGP/SGP4

EPOCH          = 2026-03-27T04:00:03.000096
MEAN_MOTION    = 15.85297316
ECCENTRICITY   = .0001506
INCLINATION    = 97.2771
RA_OF_ASC_NODE = 321.2801
ARG_OF_PERICENTER = 98.9769
MEAN_ANOMALY   = 113.6488

EPHEMERIS_TYPE = 0
CLASSIFICATION_TYPE = U
NORAD_CAT_ID   = 68225
ELEMENT_SET_NO = 999
REV_AT_EPOCH   = 280
BSTAR          = -.93995E-2
MEAN_MOTION_DOT = -.1939925E-1
MEAN_MOTION_DDOT = 0

CCSDS_OMM_VERS = 2.0
CREATION_DATE  = 
ORIGINATOR     = 

OBJECT_NAME    = STARLINK-37038
OBJECT_ID      = 2026-053V
CENTER_NAME    = EARTH
REF_FRAME      = TEME
TIME_SYSTEM    = UTC
MEAN_ELEMENT_THEORY = SGP/SGP4

EPOCH          = 2026-03-27T04:00:03.000096
MEAN_MOTION    = 15.85585387
ECCENTRICITY   = .0001654
INCLINATION    = 97.2774
RA_OF_ASC_NODE = 321.2833
ARG_OF_PERICENTER = 106.1574
MEAN_ANOMALY   = 113.9098

EPHEMERIS_TYPE = 0
CLASSIFICATION_TYPE = U
NORAD_CAT_ID   = 68226
ELEMENT_SET_NO = 999
REV_AT_EPOCH   = 280
BSTAR          = -.92804E-2
MEAN_MOTION_DOT = -.1942165E-1
MEAN_MOTION_DDOT = 0

CCSDS_OMM_VERS = 2.0
CREATION_DATE  = 
ORIGINATOR     = 

OBJECT_NAME    = STARLINK-37083
OBJECT_ID      = 2026-053W
CENTER_NAME    = EARTH
REF_FRAME      = TEME
TIME_SYSTEM    = UTC
MEAN_ELEMENT_THEORY = SGP/SGP4

EPOCH          = 2026-03-27T04:00:03.000096
MEAN_MOTION    = 15.85451358
ECCENTRICITY   = .0001976
INCLINATION    = 97.2775
RA_OF_ASC_NODE = 321.2821
ARG_OF_PERICENTER = 109.3581
MEAN_ANOMALY   = 106.9569

EPHEMERIS_TYPE = 0
CLASSIFICATION_TYPE = U
NORAD_CAT_ID   = 68227
ELEMENT_SET_NO = 999
REV_AT_EPOCH   = 282
BSTAR          = -.93352E-2
MEAN_MOTION_DOT = -.1941469E-1
MEAN_MOTION_DDOT = 0

CCSDS_OMM_VERS = 2.0
CREATION_DATE  = 
ORIGINATOR     = 

OBJECT_NAME    = STARLINK-37050
OBJECT_ID      = 2026-053X
CENTER_NAME    = EARTH
REF_FRAME      = TEME
TIME_SYSTEM    = UTC
MEAN_ELEMENT_THEORY = SGP/SGP4

EPOCH          = 2026-03-27T04:00:03.000096
MEAN_MOTION    = 15.85715722
ECCENTRICITY   = .0001814
INCLINATION    = 97.2774
RA_OF_ASC_NODE = 321.2856
ARG_OF_PERICENTER = 101.8090
MEAN_ANOMALY   = 122.0491

EPHEMERIS_TYPE = 0
CLASSIFICATION_TYPE = U
NORAD_CAT_ID   = 68228
ELEMENT_SET_NO = 999
REV_AT_EPOCH   = 280
BSTAR          = -.9285E-2
MEAN_MOTION_DOT = -.1953938E-1
MEAN_MOTION_DDOT = 0

CCSDS_OMM_VERS = 2.0
CREATION_DATE  = 
ORIGINATOR     = 

OBJECT_NAME    = STARLINK-37081
OBJECT_ID      = 2026-053Y
CENTER_NAME    = EARTH
REF_FRAME      = TEME
TIME_SYSTEM    = UTC
MEAN_ELEMENT_THEORY = SGP/SGP4

EPOCH          = 2026-03-27T04:00:03.000096
MEAN_MOTION    = 15.86141493
ECCENTRICITY   = .0001559
INCLINATION    = 97.2764
RA_OF_ASC_NODE = 321.2898
ARG_OF_PERICENTER = 106.5875
MEAN_ANOMALY   = 128.2553

EPHEMERIS_TYPE = 0
CLASSIFICATION_TYPE = U
NORAD_CAT_ID   = 68229
ELEMENT_SET_NO = 999
REV_AT_EPOCH   = 282
BSTAR          = -.905E-2
MEAN_MOTION_DOT = -.1945417E-1
MEAN_MOTION_DDOT = 0

CCSDS_OMM_VERS = 2.0
CREATION_DATE  = 
ORIGINATOR     = 

OBJECT_NAME    = STARLINK-37100
OBJECT_ID      = 2026-053Z
CENTER_NAME    = EARTH
REF_FRAME      = TEME
TIME_SYSTEM    = UTC
MEAN_ELEMENT_THEORY = SGP/SGP4

EPOCH          = 2026-03-27T04:00:03.000096
MEAN_MOTION    = 15.85880402
ECCENTRICITY   = .0001628
INCLINATION    = 97.2770
RA_OF_ASC_NODE = 321.2868
ARG_OF_PERICENTER = 101.8435
MEAN_ANOMALY   = 125.5810

EPHEMERIS_TYPE = 0
CLASSIFICATION_TYPE = U
NORAD_CAT_ID   = 68230
ELEMENT_SET_NO = 999
REV_AT_EPOCH   = 282
BSTAR          = -.91901E-2
MEAN_MOTION_DOT = -.1949911E-1
MEAN_MOTION_DDOT = 0

CCSDS_OMM_VERS = 2.0
CREATION_DATE  = 
ORIGINATOR     = 

OBJECT_NAME    = STARLINK-37104
OBJECT_ID      = 2026-053AA
CENTER_NAME    = EARTH
REF_FRAME      = TEME
TIME_SYSTEM    = UTC
MEAN_ELEMENT_THEORY = SGP/SGP4

EPOCH          = 2026-03-27T04:00:03.000096
MEAN_MOTION    = 15.86009805
ECCENTRICITY   = .0001854
INCLINATION    = 97.2767
RA_OF_ASC_NODE = 321.2884
ARG_OF_PERICENTER = 111.1682
MEAN_ANOMALY   = 119.9857

EPHEMERIS_TYPE = 0
CLASSIFICATION_TYPE = U
NORAD_CAT_ID   = 68231
ELEMENT_SET_NO = 999
REV_AT_EPOCH   = 282
BSTAR          = -.9133E-2
MEAN_MOTION_DOT = -.1950316E-1
MEAN_MOTION_DDOT = 0

CCSDS_OMM_VERS = 2.0
CREATION_DATE  = 
ORIGINATOR     = 

OBJECT_NAME    = STARLINK-37027
OBJECT_ID      = 2026-054A
CENTER_NAME    = EARTH
REF_FRAME      = TEME
TIME_SYSTEM    = UTC
MEAN_ELEMENT_THEORY = SGP/SGP4

EPOCH          = 2026-03-27T04:00:03.000096
MEAN_MOTION    = 15.80898323
ECCENTRICITY   = .000092
INCLINATION    = 53.1590
RA_OF_ASC_NODE = 225.0868
ARG_OF_PERICENTER = 101.7880
MEAN_ANOMALY   = 46.2908

EPHEMERIS_TYPE = 0
CLASSIFICATION_TYPE = U
NORAD_CAT_ID   = 68232
ELEMENT_SET_NO = 999
REV_AT_EPOCH   = 272
BSTAR          = -.48309E-3
MEAN_MOTION_DOT = -.95111E-3
MEAN_MOTION_DDOT = 0

